[{"OBJECT_NAME":"STARLINK-1555","OBJECT_ID":"2020-055F","EPOCH":"2026-03-10T00:00:02.999808","MEAN_MOTION":15.18621207,"ECCENTRICITY":0.00014992,"INCLINATION":53.1044,"RA_OF_ASC_NODE":124.8761,"ARG_OF_PERICENTER":67.3394,"MEAN_ANOMALY":17.678,"EPHEMERIS_TYPE":0,"CLASSIFICATION_TYPE":"U","NORAD_CAT_ID":46032,"ELEMENT_SET_NO":999,"REV_AT_EPOCH":564,"BSTAR":0.0057165525,"MEAN_MOTION_DOT":0.00121491,"MEAN_MOTION_DDOT":0},{"OBJECT_NAME":"OBJECT X","OBJECT_ID":"2025-313X","EPOCH":"2026-03-09T22:11:10.492800","MEAN_MOTION":15.22236742,"ECCENTRICITY":0.00140663,"INCLINATION":97.4034,"RA_OF_ASC_NODE":145.2465,"ARG_OF_PERICENTER":355.6443,"MEAN_ANOMALY":4.4668,"EPHEMERIS_TYPE":0,"CLASSIFICATION_TYPE":"U","NORAD_CAT_ID":67269,"ELEMENT_SET_NO":999,"REV_AT_EPOCH":1085,"BSTAR":0.0006925154,"MEAN_MOTION_DOT":0.00015915,"MEAN_MOTION_DDOT":0}]
